STARLINK-1470           
1 45772U 20038AU  26068.60892913  .00054678  00000+0  19687-2 0  9990
2 45772  53.0480 174.6971 0002444  12.8687 347.2373 15.28074860317065
STARLINK-32075          
1 60345U 24136S   26068.34200387 -.00000725  00000+0 -12369-4 0  9993
2 60345  53.1612  77.1119 0001305  89.5137 270.6014 15.30185308 89614
